{"type": "FeatureCollection", "features": [{"type": "Feature", "properties": {"name": "MYSTAYS 札幌公園精品酒店", "description": "名稱: MYSTAYS 札幌公園精品酒店\nEnglish: HOTEL MYSTAYS PREMIER Sapporo Park\nGoogle Maps: https://www.google.com/maps/place/MYSTAYS+%E6%9C%AD%E5%B9%8C%E5%85%AC%E5%9C%92%E7%B2%BE%E5%93%81%E9%85%92%E5%BA%97/data=!4m2!3m1!1s0x5f0b2bad8993e9a5:0xd825edc67ae4a90e\nRating: 4\nNote: \nTags: \nWebsite: https://iconia.co.jp/hotel-mystays-premier-sapporo-park-hokkaido/?utm_source=google&utm_medium=GBP&utm_campaign=MSPSapporoPark\n簡介: 平實的飯店提供悠閒的客房，並附設簡樸的餐廳與溫泉 SPA 區。"}, "geometry": {"type": "Point", "coordinates": [141.3569474, 43.0495311]}}, {"type": "Feature", "properties": {"name": "新千歲機場", "description": "名稱: 新千歲機場\nEnglish: New Chitose Airport Station\nGoogle Maps: https://www.google.com/maps/place/%E6%96%B0%E5%8D%83%E6%AD%B2%E6%A9%9F%E5%A0%B4/data=!4m2!3m1!1s0x5f75206a59b85665:0xbb7cafe62704ee3d\nRating: 4.1\nNote: \nTags: "}, "geometry": {"type": "Point", "coordinates": [141.6808693, 42.7878079]}}, {"type": "Feature", "properties": {"name": "しゃぶしゃぶ かに＆海鮮 一", "description": "名稱: しゃぶしゃぶ かに＆海鮮 一\nGoogle Maps: https://www.google.com/maps/place/%E3%81%97%E3%82%83%E3%81%B6%E3%81%97%E3%82%83%E3%81%B6+%E3%81%8B%E3%81%AB%EF%BC%86%E6%B5%B7%E9%AE%AE+%E4%B8%80/data=!4m2!3m1!1s0x5f0b29d274f2fd7b:0x6f4f58480c4daed\nRating: 4.5\nNote: \nTags: \nWebsite: https://ha6f300.gorp.jp/"}, "geometry": {"type": "Point", "coordinates": [141.3513301, 43.0543562]}}, {"type": "Feature", "properties": {"name": "札幌工廠", "description": "名稱: 札幌工廠\nEnglish: Sapporo Factory\nGoogle Maps: https://www.google.com/maps/place/%E6%9C%AD%E5%B9%8C%E5%B7%A5%E5%BB%A0/data=!4m2!3m1!1s0x5f0b297129feb09f:0x67f8fc84fdfe335f\nRating: 4\nNote: \nTags: "}, "geometry": {"type": "Point", "coordinates": [141.406043, 43.039644]}}, {"type": "Feature", "properties": {"name": "旧永山武四郎邸 / 旧三菱鉱業寮", "description": "名稱: 旧永山武四郎邸 / 旧三菱鉱業寮\nGoogle Maps: https://www.google.com/maps/place/%E6%97%A7%E6%B0%B8%E5%B1%B1%E6%AD%A6%E5%9B%9B%E9%83%8E%E9%82%B8+%2F+%E6%97%A7%E4%B8%89%E8%8F%B1%E9%89%B1%E6%A5%AD%E5%AF%AE/data=!4m2!3m1!1s0x5f0b29bc538a3005:0x4fb66131d2558d0e\nRating: 4.4\nNote: \nTags: \nWebsite: https://sapporoshi-nagayamatei.jp/"}, "geometry": {"type": "Point", "coordinates": [141.3644978, 43.0659098]}}, {"type": "Feature", "properties": {"name": "札幌開拓使麦酒醸造所 見学館", "description": "名稱: 札幌開拓使麦酒醸造所 見学館\nEnglish: Sapporo Kaitakushi beer brewery\nGoogle Maps: https://www.google.com/maps/place/%E6%9C%AD%E5%B9%8C%E9%96%8B%E6%8B%93%E4%BD%BF%E9%BA%A6%E9%85%92%E9%86%B8%E9%80%A0%E6%89%80+%E8%A6%8B%E5%AD%A6%E9%A4%A8/data=!4m2!3m1!1s0x5f0b29712730f83f:0xad7674f5ccea81eb\nRating: 4\nNote: \nTags: \nWebsite: https://www.sapporobeer.jp/brewery/sapporokaitakushi/"}, "geometry": {"type": "Point", "coordinates": [141.3621133, 43.0654312]}}, {"type": "Feature", "properties": {"name": "豐平館", "description": "名稱: 豐平館\nEnglish: Hōhei Kan\nGoogle Maps: https://www.google.com/maps/place/%E8%B1%90%E5%B9%B3%E9%A4%A8/data=!4m2!3m1!1s0x5f0b2a272bfa794d:0xdb073304d301f7dc\nRating: 4.3\nNote: \nTags: \nWebsite: https://www.s-hoheikan.jp/?utm_source=GBP&utm_medium=GBP&utm_term=GBP&utm_content=GBP&utm_campaign=GBP\n簡介: 原為 1881 年開幕的旅館，這座歷史悠久的建築地標現為舉辦活動與導覽的場地。"}, "geometry": {"type": "Point", "coordinates": [141.352564, 43.04628]}}, {"type": "Feature", "properties": {"name": "北海道大學", "description": "名稱: 北海道大學\nEnglish: Hokkaido University\nGoogle Maps: https://www.google.com/maps/place/%E5%8C%97%E6%B5%B7%E9%81%93%E5%A4%A7%E5%AD%B8/data=!4m2!3m1!1s0x5f0b290bc5dc9a43:0x425f98023e0b86d5\nRating: 4.6\nNote: \nTags: \nWebsite: https://www.hokudai.ac.jp/\n簡介: Circa-1876 public university known for its leafy campus & degrees in science, engineering & IT."}, "geometry": {"type": "Point", "coordinates": [141.3377295, 43.0790078]}}, {"type": "Feature", "properties": {"name": "札幌情報未来専門学校", "description": "名稱: 札幌情報未来専門学校\nGoogle Maps: https://www.google.com/maps/place/%E6%9C%AD%E5%B9%8C%E6%83%85%E5%A0%B1%E6%9C%AA%E6%9D%A5%E5%B0%82%E9%96%80%E5%AD%A6%E6%A0%A1/data=!4m2!3m1!1s0x5f0b29a306913915:0xa2d2184bb9f64098\nRating: 3.4\nNote: \nTags: \nWebsite: http://www.sapporo-mirai.ac.jp/"}, "geometry": {"type": "Point", "coordinates": [141.3351917, 43.0655385]}}, {"type": "Feature", "properties": {"name": "Koshinshinju Sapporo Shiten", "description": "名稱: Koshinshinju Sapporo Shiten\nGoogle Maps: https://www.google.com/maps/place/Koshinshinju+Sapporo+Shiten/data=!4m2!3m1!1s0x5f0b2920fbda6677:0xab3852cefabf0143\nRating: 3.4\nNote: \nTags: \nWebsite: http://www.koshinpearl.com/portfolio/sapporo/"}, "geometry": {"type": "Point", "coordinates": [141.3349508, 43.0660215]}}, {"type": "Feature", "properties": {"name": "Historical Village of Hokkaido", "description": "名稱: Historical Village of Hokkaido\nGoogle Maps: https://www.google.com/maps/place/Historical+Village+of+Hokkaido/data=!4m2!3m1!1s0x5f0b2ceb651ae381:0xaaa05e70a99cab96\nRating: 4.4\nNote: \nTags: \nWebsite: https://www.kaitaku.or.jp/?utm_source=GBP&utm_medium=GBP&utm_term=GBP&utm_content=GBP&utm_campaign=GBP\n簡介: 展示 19 世紀農村的露天博物館，具有超過 60 間以木材和石材建造而成的傳統住宅。"}, "geometry": {"type": "Point", "coordinates": [141.4985449, 43.0460191]}}, {"type": "Feature", "properties": {"name": "輪厚停車區 (下行)", "description": "名稱: 輪厚停車區 (下行)\nEnglish: Wattsu Parking Area (Down)\nGoogle Maps: https://www.google.com/maps/place/%E8%BC%AA%E5%8E%9A%E5%81%9C%E8%BB%8A%E5%8D%80+(%E4%B8%8B%E8%A1%8C)/data=!4m2!3m1!1s0x5f74d5da249aea5f:0x59d222504e15617f\nRating: 3.7\nNote: \nTags: \nWebsite: https://www.driveplaza.com/sapa/1050/1050081/2/"}, "geometry": {"type": "Point", "coordinates": [141.5111684, 42.9505934]}}, {"type": "Feature", "properties": {"name": "雅亭溫泉飯店", "description": "名稱: 雅亭溫泉飯店\nEnglish: Meitonoyado Park Hotel Miyabitei\nGoogle Maps: https://www.google.com/maps/place/%E9%9B%85%E4%BA%AD%E6%BA%AB%E6%B3%89%E9%A3%AF%E5%BA%97/data=!4m2!3m1!1s0x5f7566c37c349cb3:0x3d009260b671701\nRating: 4.1\nNote: \nTags: \nWebsite: http://www.miyabitei.jp/\n簡介: 簡樸的溫泉飯店附設遊戲機台區、餐廳和大眾澡堂。"}, "geometry": {"type": "Point", "coordinates": [141.141218, 42.495723]}}, {"type": "Feature", "properties": {"name": "Reclamation Monument", "description": "名稱: Reclamation Monument\nGoogle Maps: https://www.google.com/maps/place/Reclamation+Monument/data=!4m2!3m1!1s0x5f0b299b84cf8415:0x6d50a8ceaf0541ea\nRating: 3.8\nNote: \nTags: \nWebsite: http://www.sapporo-park.or.jp/odori/guide/guide_detail03"}, "geometry": {"type": "Point", "coordinates": [141.347916, 43.060198]}}, {"type": "Feature", "properties": {"name": "樺太開拓記念碑", "description": "名稱: 樺太開拓記念碑\nGoogle Maps: https://www.google.com/maps/place/%E6%A8%BA%E5%A4%AA%E9%96%8B%E6%8B%93%E8%A8%98%E5%BF%B5%E7%A2%91/data=!4m2!3m1!1s0x5f0b29a8ea728895:0x833dceec22e624d2\nRating: 4.4\nNote: \nTags: "}, "geometry": {"type": "Point", "coordinates": [141.3119509, 43.0546422]}}, {"type": "Feature", "properties": {"name": "旧第一銀行小樽支店", "description": "名稱: 旧第一銀行小樽支店\nGoogle Maps: https://www.google.com/maps/place/%E6%97%A7%E7%AC%AC%E4%B8%80%E9%8A%80%E8%A1%8C%E5%B0%8F%E6%A8%BD%E6%94%AF%E5%BA%97/data=!4m2!3m1!1s0x5f0ae1000d7838e9:0xb0ea05b4fd77a5a6\nRating: 4\nNote: \nTags: "}, "geometry": {"type": "Point", "coordinates": [141.0018276, 43.196698]}}, {"type": "Feature", "properties": {"name": "旧三菱銀行小樽支店", "description": "名稱: 旧三菱銀行小樽支店\nGoogle Maps: https://www.google.com/maps/place/%E6%97%A7%E4%B8%89%E8%8F%B1%E9%8A%80%E8%A1%8C%E5%B0%8F%E6%A8%BD%E6%94%AF%E5%BA%97/data=!4m2!3m1!1s0x5f0ae04d8a4e8fad:0x13a164943b4f1dbf\nRating: 4.3\nNote: \nTags: \nWebsite: https://www.city.otaru.lg.jp/docs/2020101500467/"}, "geometry": {"type": "Point", "coordinates": [141.0020455, 43.197006]}}, {"type": "Feature", "properties": {"name": "小樽藝術村", "description": "名稱: 小樽藝術村\nEnglish: Otaru Art Base\nGoogle Maps: https://www.google.com/maps/place/%E5%B0%8F%E6%A8%BD%E8%97%9D%E8%A1%93%E6%9D%91/data=!4m2!3m1!1s0x5f0ae04d88b14b37:0x31fcb1b45d9ae829\nRating: 4.2\nNote: \nTags: \nWebsite: https://www.nitorihd.co.jp/otaru-art-base/\n簡介: 前身為倉庫和銀行，展出彩繪玻璃、繪畫和其他作品。"}, "geometry": {"type": "Point", "coordinates": [141.0018713, 43.1976641]}}, {"type": "Feature", "properties": {"name": "石造倉庫群", "description": "名稱: 石造倉庫群\nEnglish: Warehouse District\nGoogle Maps: https://www.google.com/maps/place/%E7%9F%B3%E9%80%A0%E5%80%89%E5%BA%AB%E7%BE%A4/data=!4m2!3m1!1s0x5f0ae04d28908c73:0x67ab41537d78f4ba\nRating: 4.2\nNote: \nTags: \n簡介: 煤氣燈照亮的靜謐運河，沿途有石造倉庫改建而成的餐廳與咖啡廳。"}, "geometry": {"type": "Point", "coordinates": [141.0039248, 43.1978042]}}, {"type": "Feature", "properties": {"name": "日本銀行舊小樽支店金融資料館", "description": "名稱: 日本銀行舊小樽支店金融資料館\nEnglish: The Bank of Japan Otaru Museum\nGoogle Maps: https://www.google.com/maps/place/%E6%97%A5%E6%9C%AC%E9%8A%80%E8%A1%8C%E8%88%8A%E5%B0%8F%E6%A8%BD%E6%94%AF%E5%BA%97%E9%87%91%E8%9E%8D%E8%B3%87%E6%96%99%E9%A4%A8/data=!4m2!3m1!1s0x5f0ae05240553f8b:0xe54eab78ed137e2a\nRating: 4.2\nNote: \nTags: \nWebsite: http://www3.boj.or.jp/otaru-m/\n簡介: 約建於 1912 年、原為銀行的金融博物館，有著銀行業務與國家貨幣的展出品。"}, "geometry": {"type": "Point", "coordinates": [141.0004638, 43.1961722]}}, {"type": "Feature", "properties": {"name": "小樽蒸汽鐘", "description": "名稱: 小樽蒸汽鐘\nEnglish: Otaru Steam Clock\nGoogle Maps: https://www.google.com/maps/place/%E5%B0%8F%E6%A8%BD%E8%92%B8%E6%B1%BD%E9%90%98/data=!4m2!3m1!1s0x5f0ae05af64c3c0f:0x4311ab7ac684dc76\nRating: 4.5\nNote: \nTags: \nWebsite: https://www.otaru-orgel.co.jp/steam-clock"}, "geometry": {"type": "Point", "coordinates": [141.007666, 43.190662]}}, {"type": "Feature", "properties": {"name": "小樽音樂盒堂本館", "description": "名稱: 小樽音樂盒堂本館\nEnglish: Orgel Doh Co., Ltd.\nGoogle Maps: https://www.google.com/maps/place/%E5%B0%8F%E6%A8%BD%E9%9F%B3%E6%A8%82%E7%9B%92%E5%A0%82%E6%9C%AC%E9%A4%A8/data=!4m2!3m1!1s0x5f0ae05a517bc57d:0x2625d06b6a495753\nRating: 4.4\nNote: \nTags: \nWebsite: http://www.otaru-orgel.co.jp/"}, "geometry": {"type": "Point", "coordinates": [141.007792, 43.1905785]}}, {"type": "Feature", "properties": {"name": "羊蹄山", "description": "名稱: 羊蹄山\nEnglish: Mount Yōtei\nGoogle Maps: https://www.google.com/maps/place/%E7%BE%8A%E8%B9%84%E5%B1%B1/data=!4m2!3m1!1s0x5f0ab3d467a17fa5:0x7a8d8b7a7eeed95a\nRating: 4.6\nNote: \nTags: \n簡介: 高 6,227 英尺的對稱層狀火山，因山型酷似富士山而成為當地知名地標。"}, "geometry": {"type": "Point", "coordinates": [140.8067401, 42.8269572]}}, {"type": "Feature", "properties": {"name": "新雪谷村希爾頓酒店", "description": "名稱: 新雪谷村希爾頓酒店\nEnglish: Hilton Niseko Village\nGoogle Maps: https://www.google.com/maps/place/%E6%96%B0%E9%9B%AA%E8%B0%B7%E6%9D%91%E5%B8%8C%E7%88%BE%E9%A0%93%E9%85%92%E5%BA%97/data=!4m2!3m1!1s0x5f0aafe6dd2b9abd:0xd51b46a08f7dadda\nRating: 4\nNote: \nTags: \nWebsite: https://www.hilton.com/en/hotels/ctsnvhi-hilton-niseko-village/?SEO_id=GMB-APAC-HI-CTSNVHI\n簡介: Polished rooms in a mountain hotel offering restaurants, bars & a spa, plus ski-in/ski-out access."}, "geometry": {"type": "Point", "coordinates": [140.684909, 42.846761]}}, {"type": "Feature", "properties": {"name": "Niseko Village Ski Resort", "description": "名稱: Niseko Village Ski Resort\nGoogle Maps: https://www.google.com/maps/place/Niseko+Village+Ski+Resort/data=!4m2!3m1!1s0x5f0aafefaf426a19:0x6463dabe605c4ca6\nRating: 4.1\nNote: \nTags: \nWebsite: https://www.niseko-village.com/\n簡介: Mountain getaway with skiing & snowboarding, plus elegant accommodations, hot springs & spas."}, "geometry": {"type": "Point", "coordinates": [140.6843228, 42.8469779]}}, {"type": "Feature", "properties": {"name": "Hirafu Welcome Center", "description": "名稱: Hirafu Welcome Center\nGoogle Maps: https://www.google.com/maps/place/Hirafu+Welcome+Center/data=!4m2!3m1!1s0x5f0ab00c042b8ead:0x905598b2330e6bbf\nRating: 4\nNote: \nTags: "}, "geometry": {"type": "Point", "coordinates": [140.6986668, 42.8626029]}}, {"type": "Feature", "properties": {"name": "苫小牧車站", "description": "名稱: 苫小牧車站\nEnglish: Tomakomai Station\nGoogle Maps: https://www.google.com/maps/place/%E8%8B%AB%E5%B0%8F%E7%89%A7%E8%BB%8A%E7%AB%99/data=!4m2!3m1!1s0x5f7510cf3a64ff63:0x30301e75cedf5c18\nRating: 3.4\nNote: \nTags: \nWebsite: http://www.jrhokkaido.co.jp/"}, "geometry": {"type": "Point", "coordinates": [141.596789, 42.639739]}}, {"type": "Feature", "properties": {"name": "Tomakomai City Art Museum", "description": "名稱: Tomakomai City Art Museum\nGoogle Maps: https://www.google.com/maps/place/Tomakomai+City+Art+Museum/data=!4m2!3m1!1s0x5f7510bf6e657951:0xa1ba8bbbb4826c59\nRating: 4\nNote: \nTags: \nWebsite: http://www.city.tomakomai.hokkaido.jp/hakubutsukan/\n簡介: Modern, expansive museum with displays covering topics such as prehistoric fossils & Ainu culture."}, "geometry": {"type": "Point", "coordinates": [141.6129542, 42.6374954]}}, {"type": "Feature", "properties": {"name": "出光文化公園", "description": "名稱: 出光文化公園\nEnglish: Idemitsu Culture Park\nGoogle Maps: https://www.google.com/maps/place/%E5%87%BA%E5%85%89%E6%96%87%E5%8C%96%E5%85%AC%E5%9C%92/data=!4m2!3m1!1s0x5f7510c086e70663:0x202dbfebef2e98f3\nRating: 3.9\nNote: \nTags: \nWebsite: https://www.city.tomakomai.hokkaido.jp/shizen/koen/shisetsu/bunkakoen2.html"}, "geometry": {"type": "Point", "coordinates": [141.61137, 42.636386]}}, {"type": "Feature", "properties": {"name": "苫小牧中央公園", "description": "名稱: 苫小牧中央公園\nEnglish: Tomakomai Chūō Park\nGoogle Maps: https://www.google.com/maps/place/%E8%8B%AB%E5%B0%8F%E7%89%A7%E4%B8%AD%E5%A4%AE%E5%85%AC%E5%9C%92/data=!4m2!3m1!1s0x5f7511e1000e151b:0xb3d624065ad2c020\nRating: 3.7\nNote: \nTags: "}, "geometry": {"type": "Point", "coordinates": [141.6069398, 42.6381828]}}, {"type": "Feature", "properties": {"name": "苫小牧市汐見・ふるさと海岸", "description": "名稱: 苫小牧市汐見・ふるさと海岸\nGoogle Maps: https://www.google.com/maps/place/%E8%8B%AB%E5%B0%8F%E7%89%A7%E5%B8%82%E6%B1%90%E8%A6%8B%E3%83%BB%E3%81%B5%E3%82%8B%E3%81%95%E3%81%A8%E6%B5%B7%E5%B2%B8/data=!4m2!3m1!1s0x5f7510e67c392ba3:0xa430f178dd7599c9\nRating: 4\nNote: \nTags: \nWebsite: http://www.jptmk.com/040citizens/index.html"}, "geometry": {"type": "Point", "coordinates": [141.6098854, 42.6275602]}}, {"type": "Feature", "properties": {"name": "Koko Hotel Tomakomai", "description": "名稱: Koko Hotel Tomakomai\nGoogle Maps: https://www.google.com/maps/place/Koko+Hotel+Tomakomai/data=!4m2!3m1!1s0x5f7510c8a853669f:0x33599fe8a7716fff\nRating: 4.1\nNote: \nTags: \nWebsite: https://koko-hotels.com/tomakomai/\n簡介: 簡樸旅館，提供附免費 Wi-Fi 的當代風格客房住宿，並附設餐廳。"}, "geometry": {"type": "Point", "coordinates": [141.5997725, 42.6393189]}}, {"type": "Feature", "properties": {"name": "札幌市時計台", "description": "名稱: 札幌市時計台\nEnglish: Sapporo Clock Tower\nGoogle Maps: https://www.google.com/maps/place/%E6%9C%AD%E5%B9%8C%E5%B8%82%E6%99%82%E8%A8%88%E5%8F%B0/data=!4m2!3m1!1s0x5f0b297627507247:0x1b9ba84a4b04cdeb\nRating: 3.9\nNote: \nTags: \nWebsite: http://sapporoshi-tokeidai.jp/\n簡介: 這座具代表性的木造鐘樓建於 1878 年，現在內部設有關於札幌歷史的博物館。"}, "geometry": {"type": "Point", "coordinates": [141.3536448, 43.0625537]}}, {"type": "Feature", "properties": {"name": "札幌電視塔", "description": "名稱: 札幌電視塔\nEnglish: Sapporo TV Tower\nGoogle Maps: https://www.google.com/maps/place/%E6%9C%AD%E5%B9%8C%E9%9B%BB%E8%A6%96%E5%A1%94/data=!4m2!3m1!1s0x5f0b299d5f87648d:0xe2041a78c3222031\nRating: 4.1\nNote: \nTags: \nWebsite: https://www.tv-tower.co.jp/\n簡介: 著名的電視塔，建於 1950 年代，有可欣賞城市全景的觀景台。"}, "geometry": {"type": "Point", "coordinates": [141.3564484, 43.0611129]}}, {"type": "Feature", "properties": {"name": "Sankaku Market", "description": "名稱: Sankaku Market\nGoogle Maps: https://www.google.com/maps/place/Sankaku+Market/data=!4m2!3m1!1s0x5f0ae1acdc5d6be7:0xfdb67ce7ef454872\nRating: 3.9\nNote: \nTags: \nWebsite: http://otaru-sankaku.com/access.html\n簡介: 樸實的市集，有販售水果、蔬菜、海鮮與熟食的攤販。"}, "geometry": {"type": "Point", "coordinates": [140.9939062, 43.1983904]}}, {"type": "Feature", "properties": {"name": "似鳥美術館", "description": "名稱: 似鳥美術館\nEnglish: Nitori Museum of Art\nGoogle Maps: https://www.google.com/maps/place/%E4%BC%BC%E9%B3%A5%E7%BE%8E%E8%A1%93%E9%A4%A8/data=!4m2!3m1!1s0x5f0ae1e2e07d4bed:0x798514c2a28f2af8\nRating: 4.5\nNote: \nTags: \nWebsite: https://www.nitorihd.co.jp/otaru-art-base/nitori-museum-of-art/"}, "geometry": {"type": "Point", "coordinates": [141.0018641, 43.1972362]}}, {"type": "Feature", "properties": {"name": "Otaru Bine", "description": "名稱: Otaru Bine\nGoogle Maps: https://www.google.com/maps/place/Otaru+Bine/data=!4m2!3m1!1s0x5f0ae0526f72b687:0xc6d536fe1b2530ec\nRating: 4.1\nNote: \nTags: \nWebsite: https://www.otarubine.chuo-bus.co.jp/\n簡介: German & Italian cuisine, wines & deli items served inside a restored 19th-century bank building."}, "geometry": {"type": "Point", "coordinates": [141.000772, 43.196785]}}, {"type": "Feature", "properties": {"name": "舊手宮線", "description": "名稱: 舊手宮線\nEnglish: Former Japanese National Railways, Temiya line\nGoogle Maps: https://www.google.com/maps/place/%E8%88%8A%E6%89%8B%E5%AE%AE%E7%B7%9A/data=!4m2!3m1!1s0x5f0ae052a9f2e559:0x3dd27ba162c407fa\nRating: 4.1\nNote: \nTags: \nWebsite: https://otaru.gr.jp/shop/temiya-line"}, "geometry": {"type": "Point", "coordinates": [140.998736, 43.199064]}}, {"type": "Feature", "properties": {"name": "Otaru Canal", "description": "名稱: Otaru Canal\nGoogle Maps: https://www.google.com/maps/place/Otaru+Canal/data=!4m2!3m1!1s0x5f0ae16457554cd1:0x4ee07ad75699721\nRating: 4.4\nNote: \nTags: \nWebsite: https://www.city.otaru.lg.jp/docs/2020100900367/"}, "geometry": {"type": "Point", "coordinates": [141.0006005, 43.2020231]}}, {"type": "Feature", "properties": {"name": "狸小路商店街", "description": "名稱: 狸小路商店街\nEnglish: Tanukikoji Shopping Street\nGoogle Maps: https://www.google.com/maps/place/%E7%8B%B8%E5%B0%8F%E8%B7%AF%E5%95%86%E5%BA%97%E8%A1%97/data=!4m2!3m1!1s0x5f0b298314dc68c9:0x3e09837aece117a1\nRating: 4.2\nNote: \nTags: \nWebsite: http://www.tanukikoji.or.jp/\n簡介: 歷史悠久的遮棚商店街，橫跨 7 個街區，共有約 200 家商店。"}, "geometry": {"type": "Point", "coordinates": [141.3505831, 43.0569761]}}, {"type": "Feature", "properties": {"name": "北海道廳本廳舍", "description": "名稱: 北海道廳本廳舍\nEnglish: Former Hokkaido Government Office Building Red Brick Building\nGoogle Maps: https://www.google.com/maps/place/%E5%8C%97%E6%B5%B7%E9%81%93%E5%BB%B3%E6%9C%AC%E5%BB%B3%E8%88%8D/data=!4m2!3m1!1s0x5f0b299f007507ad:0xbb215d6e0de69db7\nRating: 4.1\nNote: \nTags: \nWebsite: https://www.pref.hokkaido.lg.jp/\n簡介: 1880 年代的前政府大樓，由紅磚建造，有北海道歷史的展品。"}, "geometry": {"type": "Point", "coordinates": [141.3480242, 43.0639656]}}, {"type": "Feature", "properties": {"name": "小樽市", "description": "名稱: 小樽市\nEnglish: Otaru\nGoogle Maps: https://www.google.com/maps/place/%E5%B0%8F%E6%A8%BD%E5%B8%82/data=!4m2!3m1!1s0x5f0adfae98ef793b:0xa3e7b628d5ad9a1\nRating: \nNote: \nTags: "}, "geometry": {"type": "Point", "coordinates": [140.9946021, 43.1906806]}}, {"type": "Feature", "properties": {"name": "北海道神宮", "description": "名稱: 北海道神宮\nEnglish: Hokkaido Jingu\nGoogle Maps: https://www.google.com/maps/place/%E5%8C%97%E6%B5%B7%E9%81%93%E7%A5%9E%E5%AE%AE/data=!4m2!3m1!1s0x5f0b29dcc4f0a893:0xec8de2355b66d708\nRating: 4.6\nNote: \nTags: \nWebsite: http://www.hokkaidojingu.or.jp/\n簡介: 建於 1869 年的蓊鬱神社，供奉著 4 尊神祇，其中包括明治天皇。"}, "geometry": {"type": "Point", "coordinates": [141.3077928, 43.054333]}}, {"type": "Feature", "properties": {"name": "昭和新山", "description": "名稱: 昭和新山\nEnglish: Shōwa-shinzan\nGoogle Maps: https://www.google.com/maps/place/%E6%98%AD%E5%92%8C%E6%96%B0%E5%B1%B1/data=!4m2!3m1!1s0x5f9fe27250aacfc1:0xab4f4f43aed68055\nRating: 4.3\nNote: \nTags: \n簡介: Prominent lava dome standing at 1,306-ft. & emitting volcanic smoke into the air."}, "geometry": {"type": "Point", "coordinates": [140.8643525, 42.5425537]}}, {"type": "Feature", "properties": {"name": "Lake Toya sculpture park", "description": "名稱: Lake Toya sculpture park\nGoogle Maps: https://www.google.com/maps/place/Lake+Toya+sculpture+park/data=!4m2!3m1!1s0x5f75570fffffffff:0x3bb66cc7cc0cc68a\nRating: 4.5\nNote: \nTags: \nWebsite: http://www.town.toyako.hokkaido.jp/tourism/art_culture/atc001/"}, "geometry": {"type": "Point", "coordinates": [140.8212136, 42.5662313]}}, {"type": "Feature", "properties": {"name": "支笏湖", "description": "名稱: 支笏湖\nEnglish: Lake Shikotsu\nGoogle Maps: https://www.google.com/maps/place/%E6%94%AF%E7%AC%8F%E6%B9%96/data=!4m2!3m1!1s0x5f753913215f72bb:0x7bd8ec9776a202d0\nRating: 4.5\nNote: \nTags: \n簡介: 火口湖，以其深度和澄澈的湖水聞名，適合從事划船、釣魚和觀光遊覽活動。"}, "geometry": {"type": "Point", "coordinates": [141.3275269, 42.7538546]}}, {"type": "Feature", "properties": {"name": "三井OUTLET PARK 札幌北廣島", "description": "名稱: 三井OUTLET PARK 札幌北廣島\nEnglish: Mitsui Outlet Park Sapporo-Kitahiroshima\nGoogle Maps: https://www.google.com/maps/place/%E4%B8%89%E4%BA%95OUTLET+PARK+%E6%9C%AD%E5%B9%8C%E5%8C%97%E5%BB%A3%E5%B3%B6/data=!4m2!3m1!1s0x5f74d50a08027ef3:0xef1586954c148c0d\nRating: 4\nNote: \nTags: \nWebsite: https://mitsui-shopping-park.com/mop/sapporo/"}, "geometry": {"type": "Point", "coordinates": [141.4701078, 42.9722381]}}, {"type": "Feature", "properties": {"name": "新千歲機場", "description": "名稱: 新千歲機場\nEnglish: New Chitose Airport\nGoogle Maps: https://www.google.com/maps/place/%E6%96%B0%E5%8D%83%E6%AD%B2%E6%A9%9F%E5%A0%B4/data=!4m2!3m1!1s0x5f7520459d5c1add:0x1aba607ce5f681f6\nRating: 4.3\nNote: \nTags: \nWebsite: https://www.hokkaido-airports.com/ja/new-chitose/\n簡介: Northern Japan airport with a movie theater, a children's play area plus a stuffed-animal museum."}, "geometry": {"type": "Point", "coordinates": [141.6808693, 42.7878079]}}, {"type": "Feature", "properties": {"name": "五稜郭跡", "description": "名稱: 五稜郭跡\nEnglish: Goryōkaku Fort\nGoogle Maps: https://www.google.com/maps/place/%E4%BA%94%E7%A8%9C%E9%83%AD%E8%B7%A1/data=!4m2!3m1!1s0x5f9ef46bcb8d5525:0xa9e4bd2d96c4d502\nRating: 4.4\nNote: \nTags: \nWebsite: https://www.city.hakodate.hokkaido.jp/docs/2014011601161/\n簡介: 在江戶時代晚期建的櫻花公園，有護城河的五角星型堡壘。"}, "geometry": {"type": "Point", "coordinates": [140.7547961, 41.7955557]}}]}